,id,Soil Clay Fraction,Elevation,Drainage Direction,Upstream Drainage Area (km^2),Height Above Nearest Drainage (m),Landform Type,Soil Sand Fraction,Slope (degrees),Fine Earth Density (kg / m^3),Soil Great Group,Distance to Waterway (m),Nearest Water Type,place_name,Population - 1 km,Population - 5 km,Population - 10 km,Wind Speed (m/s),geometry,latitude,longitude
0,8f65a662eda92d0,0.4,-1,southwest,0.1854217797517776,0.0999999046325683,Lower slope (flat),0.21,0.0,127,2,30.11976836252593,canal,"Long Huu, Duyen Hai Town, Tra Vinh province, Vietnam",1741,30710,94334,3.3972198963165283,POINT (106.4911956289743 9.696041205119213),9.696041205119213,106.4911956289743
1,8f69300b306ccf5,0.26,48,north,0.0166093036532402,6.899997711181641,Valley,0.5,5.588972104867973,136,3,2303.327671187896,river,"An Nhon, An Nhơn District, Bình Định Province, 5800, Vietnam",1674,44649,223809,1.8205450773239136,POINT (109.0803413075353 13.83540917725431),13.83540917725431,109.0803413075353
2,8f414524556d899,0.27,6,south,0.0081137735396623,0.2000000476837158,Valley,0.4,0.7216057411932799,120,0,1000.279136034404,river,"Hong Linh town, Hồng Lĩnh, Ha Tinh Province, 483700, Vietnam",1485,41460,127425,2.5079987049102783,POINT (105.7053175472404 18.51141166292845),18.51141166292845,105.7053175472404
3,8f4161d8b58b95c,0.32,28,northwest,0.0081991432234644,11.199999809265137,Lower slope (warm),0.37,2.14520399132466,117,0,423.9067644361715,reservoir,"Phong Điền District, Thừa Thiên Huế Province, Vietnam",210,9146,35426,2.118541955947876,POINT (107.3256516736938 16.57980695919519),16.57980695919519,107.3256516736938
4,8f6932cc4486855,0.29,451,southeast,0.0083380891010165,17.29998779296875,Upper slope (warm),0.45,1.999738869356824,138,0,399.5475236507519,river,"Ea Kar District, Đắk Lắk province, Vietnam",381,21422,79949,4.138969898223877,POINT (108.4814444568786 12.8451107659333),12.8451107659333,108.4814444568786
5,8f65a348dacccda,0.3,6,north,0.0084096230566501,3.4000003337860107,Lower slope (flat),0.39,0.4408959680670564,122,3,674.5743636962526,river,"Tri Tôn District, An Giang Province, Vietnam",1466,33515,88685,3.070953607559204,POINT (104.9675789639119 10.42042273235951),10.42042273235951,104.9675789639119
6,8f65b1414620472,0.25,56,north,0.0083737531676888,0.7999992370605469,Lower slope (warm),0.52,0.6942347495299975,132,1,2695.854782999428,river,"Hớn Quản District, Bình Phước Province, Vietnam",400,11263,64963,2.2247209548950195,POINT (106.5278586021936 11.69868723170964),11.69868723170964,106.5278586021936
7,8f6932da1718223,0.32,778,northwest,0.0083336411044001,87.699951171875,Upper slope (warm),0.4,5.291400969509665,121,0,4302.214283911942,water,"Krông Buk District, Đắk Lắk province, Vietnam",1616,25160,97404,5.560812950134277,POINT (108.2306477613554 12.98093091142825),12.98093091142825,108.2306477613554
8,8f65b47a0552a54,0.28,39,northwest,0.0083912881091237,9.700000762939451,Lower slope (warm),0.4,1.3876544244680906,142,0,1760.0761910746626,river,"Ma Lâm, Hàm Thuận Bắc District, Binh Thuan province, Vietnam",679,26742,75949,2.2795891761779785,POINT (108.1551566523102 11.09240801543246),11.09240801543246,108.1551566523102
9,8f65b572e461892,0.26,24,southwest,0.0672188028693199,4.0,Upper slope (flat),0.48,0.8821359557775891,130,0,3185.036576544068,river,"Nguyễn Văn Cừ, Xã Phước An, Nhơn Trạch District, Đồng Nai Province, Vietnam",2413,52805,177718,1.9475598335266116,POINT (106.9356512302834 10.69208456962812),10.69208456962812,106.9356512302834
10,8f65b10c644e260,0.21,22,south,0.0083813928067684,6.899999618530273,Upper slope (warm),0.56,1.8543341688374635,139,2,951.98599359668,canal,"Tân Châu District, Tay Ninh province, Vietnam",542,16779,59512,2.595753669738769,POINT (106.127532095402 11.43809666683199),11.43809666683199,106.127532095402
11,8f41423aaa32171,0.26,3,northeast,0.008005641400814,1.399999976158142,Lower slope (flat),0.37,0.4525647706108565,115,0,1771.7205039801495,river,"Xã Đại Hợp, Huyện Kiến Thụy, Haiphong, Vietnam",2510,58956,216158,3.246694564819336,POINT (106.7070961712786 20.70820336961993),20.70820336961993,106.7070961712786
12,8f6936101c72d58,0.33,714,southwest,0.0249078422784805,39.5,Lower slope (warm),0.35,4.312796685435729,126,1,4569.098138996387,water,"Pleiku, Gia Lai Province, Vietnam",329,13045,83719,2.869382858276367,POINT (107.9437112311521 13.89136722874058),13.89136722874058,107.9437112311521
13,8f65a2a222e6a6c,0.35,1,northwest,0.0084255430847406,0.5,Lower slope (flat),0.33,0.4404647251041264,85,2,910.9932124394534,canal,"61, Hòa Qưới, Phụng Hiệp District, Hậu Giang Province, Vietnam",2198,23759,80968,3.163803577423096,POINT (105.6408375405552 9.80164795717625),9.80164795717625,105.6408375405552
14,8f65b50db691659,0.34,5,east,0.0252096261829137,1.100000023841858,Lower slope (flat),0.36,1.9120060355479216,100,0,263.7656548253122,river,"Xã Phước Khánh, Nhơn Trạch District, Đồng Nai Province, 710000, Vietnam",593,24714,118268,2.393994092941284,POINT (106.8547256748369 10.66104962944429),10.66104962944429,106.8547256748369
15,8f415dc5d62c58a,0.31,38,northwest,0.0079783014953136,15.099998474121094,Upper slope (warm),0.41,2.804421492944212,125,1,1504.4010374789414,stream,"Thanh Thủy District, Phu Tho Province, Vietnam",565,17121,126247,2.631882905960083,POINT (105.2753548519393 21.22922797715425),21.22922797715425,105.2753548519393
16,8f416e7b36aa98e,0.27,70,northwest,0.0814296007156372,11.299999237060549,Lower slope (warm),0.41,7.5791336339141715,82,1,1315.16451221995,water,"Dong Le Town, Tuyên Hóa District, Quang Binh province, Vietnam",274,5673,16831,2.081871032714844,POINT (106.0047559160207 17.8763256931243),17.8763256931243,106.0047559160207
17,8f65a2a69521581,0.31,3,north,0.0084269884973764,1.0,Upper slope (flat),0.35,0.4404255469064112,99,1,1162.687201005024,river,"Quốc lộ 61, Vị Thanh, Hậu Giang Province, Vietnam",2751,34452,109000,3.162409782409668,POINT (105.403826069172 9.743262713264153),9.743262713264153,105.403826069172
18,8f65b449414c9ab,0.3,12,southwest,0.0251608192920684,4.699999809265137,Lower slope (flat),0.4,1.2759844534220406,149,0,1298.8230272298665,stream,"Hải Xuân, Bắc Bình District, Binh Thuan province, Vietnam",1138,22228,52505,2.605863571166992,POINT (108.4974870956676 11.24481480752263),11.24481480752263,108.4974870956676
19,8f41642ed8258f4,0.29,35,north,0.0328855812549591,7.0,Lower slope (warm),0.41,10.289293111043408,124,0,1158.6474517677038,pond,"Hoàng Văn Thái, Liên Chiểu, Da Nang, 556264, Vietnam",4237,187406,730542,1.3076940774917605,POINT (108.1415978914144 16.04118036278302),16.04118036278302,108.1415978914144
20,8f65b54f2b8950a,0.31,213,east,0.0083956411108374,34.69999694824219,Upper slope (warm),0.45,3.9815442329337953,122,1,782.7036019021723,lake,"Phường Suối Tre, Long Khánh City, Đồng Nai Province, Vietnam",3406,101419,220086,2.827594518661499,POINT (107.2234942486279 10.9366634700577),10.9366634700577,107.2234942486279
21,8f65a29817862ce,0.27,2,south,1.3226958513259888,0.0,Lower slope (flat),0.45,0.979032601292509,115,0,2285.5338504178635,canal,"Tiểu Cần, Tiểu Cần District, Tra Vinh province, Vietnam",2853,47184,114871,3.277125835418701,POINT (106.1958677268928 9.830193738257654),9.830193738257654,106.1958677268928
22,8f65a2d65034925,0.3,0,northwest,0.0084229372441768,0.3999999761581421,Valley,0.36,0.0,118,1,398.1584704639015,ditch,"Quốc lộ 60, Bình La, Châu Thành District, Tra Vinh province, Vietnam",1781,65195,223661,3.232924699783325,POINT (106.2878664783736 9.904627272914182),9.904627272914182,106.2878664783736
23,8f65b09110d5b88,0.31,133,northwest,0.0251745730638504,7.900001525878906,Lower slope (flat),0.41,0.9450370322622524,133,4,3313.4082619958376,river,"Gia An, Tánh Linh District, Binh Thuan province, Vietnam",400,19688,51878,1.7282757759094238,POINT (107.6543516740012 11.08448299160706),11.08448299160706,107.6543516740012
24,8f65a0410319b9c,0.28,4,north,0.0084333587437868,1.0,Valley,0.46,0.6989476348499121,124,1,2674.979190794249,river,"Quốc lộ 1, Thạnh Phú, Mỹ Xuyên District, Soc Trang province, Vietnam",1258,27070,87966,3.2241010665893555,POINT (105.8276859241445 9.482428399526377),9.482428399526377,105.8276859241445
25,8f65b04ee490c01,0.35,703,southwest,0.0083647016435861,102.9000244140625,Upper slope (warm),0.38,12.870045884892797,115,1,1168.3049114169437,water,"Kien Duc, Đăk R'Lấp District, Tuy Đức District, Đắk Nông Province, Vietnam",1201,26341,54815,2.82609486579895,POINT (107.4931660760406 11.99983712632616),11.99983712632616,107.4931660760406
26,8f65a2c2ecc5932,0.29,3,northeast,0.2777940630912781,0.2000000476837158,Valley,0.38,1.119990385803426,122,1,387.811736422644,canal,"Mỏ Cày Nam District, Bến Tre Province, Vietnam",3955,79250,169693,2.9618279933929443,POINT (106.3087819425039 10.09996430966018),10.09996430966018,106.3087819425039
27,8f6936a1e294934,0.33,743,northeast,0.0082973223179578,54.0999755859375,Upper slope (warm),0.4,1.2364626041759954,121,0,2635.1912194884635,river,"Mang Yang District, Gia Lai Province, Vietnam",314,11662,34822,4.371081352233887,POINT (108.3102359649335 14.04251638766823),14.04251638766823,108.3102359649335
28,8f65a2b4232a459,0.38,-1,north,0.0084281479939818,0.1000001430511474,Lower slope (flat),0.28,0.9903214751911932,87,1,66.43478694721446,ditch,"Phường Bình Thạnh, Long My Town, Hậu Giang Province, Vietnam",3308,46371,116281,3.265923023223877,POINT (105.5701034525554 9.695505333187313),9.695505333187313,105.5701034525554
29,8f65a0530a05726,0.48,2,west,0.0084377964958548,1.7000000476837158,Upper slope (flat),0.21,0.9788751823270512,103,4,477.7106378778115,canal,"Lê Lai, Hải Ngư, Xã Vĩnh Trạch Đông, Vĩnh Châu Town, Soc Trang province, Vietnam",801,38484,75167,3.8110194206237793,POINT (105.9692120922419 9.296732736317162),9.296732736317162,105.9692120922419
30,8f65b1caa30b8da,0.25,48,northeast,0.2431052178144455,8.299999237060547,Lower slope (warm),0.53,1.811763470092128,128,0,1902.545013106857,canal,"Chơn Thành, Chơn Thành District, Bình Phước Province, 112, Vietnam",219,14429,82229,2.3455817699432373,POINT (106.6665792482019 11.3856328477937),11.3856328477937,106.6665792482019
31,8f65848c84a55b4,0.4,3,southwest,0.058800209313631,0.8999999761581421,Upper slope (flat),0.26,0.4411572417728163,127,2,52.454386134277065,river,"957, An Phú, An Phú District, An Giang Province, 89888, Vietnam",1706,46905,175227,3.047905921936035,POINT (105.086372382557 10.77668333340407),10.77668333340407,105.086372382557
32,8f416ad30105974,0.27,46,northeast,0.0081332698464393,23.600000381469727,Lower slope (warm),0.44,2.589089779602164,116,3,180.08567888471262,water,"Ho Chi Minh Highway, Cầy Trạo, Hương Khê District, Ha Tinh Province, Vietnam",276,4993,19453,2.821775197982788,POINT (105.793380065654 18.08866643617355),18.08866643617355,105.793380065654
33,8f416150935b336,0.29,34,west,0.0409510470926761,8.700000762939453,Lower slope (warm),0.4,0.6975446798199199,129,1,1145.1009846908964,river,"Dong Ha City, Quang Tri province, Vietnam",1653,63361,125048,3.3695099353790283,POINT (107.070535969702 16.79366236526054),16.79366236526054,107.070535969702
34,8f69305652d9955,0.28,38,northeast,0.0498179271817207,9.19999885559082,Lower slope (warm),0.49,3.41008241435182,142,1,1904.6664407180008,stream,"Gạch ngói Phú An, Phú An, Tây Sơn District, Bình Định Province, Vietnam",842,28014,90429,2.60990834236145,POINT (108.9558934205414 13.88450558092197),13.88450558092197,108.9558934205414
35,8f65b2141818998,0.34,607,northwest,0.0083493553102016,52.0,Upper slope (warm),0.39,3.3372710351486767,125,1,-1.0,-1,"Quốc lộ 14C, Đăk Mil, Đắk Mil District, Đắk Nông Province, 641970, Vietnam",253,15519,78202,3.205094814300537,POINT (107.6270962788192 12.49410263258348),12.49410263258348,107.6270962788192
36,8f6584d4219c26c,0.4,7,north,0.0503865964710712,1.200000286102295,Upper slope (flat),0.28,0.3147997393546425,99,3,634.8634954594446,canal,"Sa Rài, Tân Hồng District, Dong Thap Province, Vietnam",1768,26739,83979,3.0005762577056885,POINT (105.4786912805701 10.86101623083148),10.86101623083148,105.4786912805701
37,8f65b66de50961b,0.33,448,northeast,0.0083523271605372,28.5,Upper slope (warm),0.39,4.119600745445348,133,2,2440.083431450404,river,"Liên Sơn, Lắk District, Đắk Lắk province, Vietnam",576,14414,33326,3.3891494274139404,POINT (108.1991473782081 12.39962323191169),12.39962323191169,108.1991473782081
38,8f65b04334880db,0.35,599,southeast,0.0083667496219277,67.10003662109375,Peak/ridge (warm),0.36,8.563822290204799,121,2,856.89202000417,dam,"Lê Thánh Tông, Gia Nghia, Đắk Nông Province, Vietnam",213,7062,58901,2.5051939487457275,POINT (107.6638788788328 11.93230354427615),11.93230354427615,107.6638788788328
39,8f4159734c6a774,0.29,126,northeast,0.0950013846158981,9.699996948242188,Lower slope (warm),0.39,8.711474678665208,130,1,4759.839536675637,river,"Bao Thang District, Lao Cai province, Vietnam",320,11078,48467,2.591526508331299,POINT (104.2066225369409 22.35847145507838),22.35847145507838,104.2066225369409
40,8f65b1414604946,0.25,56,northeast,0.0502424389123916,0.0,Upper slope (warm),0.52,0.6942347495299975,132,1,2642.719445860759,river,"Hớn Quản District, Bình Phước Province, Vietnam",400,11244,64207,2.2247209548950195,POINT (106.5276651132788 11.69913605642834),11.69913605642834,106.5276651132788
41,8f65a62c6628b2a,0.28,-3,southwest,0.0505944080650806,0.0999999046325683,Valley,0.37,0.9898595596170484,121,2,104.5731304751476,canal,"ĐH.28, Lịch Hội Thượng, Trần Đề District, Soc Trang province, Vietnam",738,31647,121466,3.417497158050537,POINT (106.1409934871315 9.520472349245905),9.520472349245905,106.1409934871315
42,8f65b2d5c6b6b24,0.38,461,southeast,0.0083489753305912,19.0,Lower slope (warm),0.37,3.844316449867152,138,0,2334.6118346426347,water,"Buôn Trấp, Krông Ana District, Đắk Lắk province, Vietnam",648,31968,86855,3.5550246238708496,POINT (108.0731812145491 12.50554006630273),12.50554006630273,108.0731812145491
43,8f65a04a6ae88b1,0.3,2,west,17.048994064331055,0.0,Lower slope (flat),0.38,0.8805222212545802,119,3,1412.6423604870508,canal,"Mỹ Tú District, Soc Trang province, Vietnam",1548,38552,130856,3.363909244537353,POINT (105.8872063474984 9.533500195328648),9.533500195328648,105.8872063474984
44,8f415cb36ad5aa4,0.22,3,southeast,0.0079886112362146,1.1000001430511477,Lower slope (flat),0.45,3.5029237170001326,111,2,4146.498884850013,ditch,"Gia Bình District, Bac Ninh province, Vietnam",1882,82440,287874,3.2580716609954834,POINT (106.1362961538998 21.0337591486126),21.0337591486126,106.1362961538998
45,8f65a20eaaf2c92,0.42,6,north,0.0336533822119236,0.0,Valley,0.22,0.8815386239721349,105,1,198.1707571392314,river,"Sa Đéc City, Dong Thap Province, 81800, Vietnam",2769,95503,244422,3.1037659645080566,POINT (105.7276207045853 10.27984237548872),10.27984237548872,105.7276207045853
46,8f6932a464a14c2,0.33,45,northeast,0.058268167078495,9.200000762939451,Valley,0.39,4.317082765790048,127,2,3664.130701792004,river,"Chi Thanh Town, Tuy An District, Phu Yen province, Vietnam",479,24834,90300,3.4521288871765137,POINT (109.2173659452452 13.27270311442915),13.27270311442915,109.2173659452452
47,8f65a0558c7294c,0.25,-1,south,0.0253110844641923,0.3999998569488525,Lower slope (flat),0.49,0.6931401153995504,123,3,201.3955592040049,canal,"Châu Hưng, Vĩnh Lợi District, Bac Lieu province, 97000, Vietnam",1773,100504,217806,3.307691812515259,POINT (105.7315967000754 9.328448477616119),9.328448477616119,105.7315967000754
48,8f65a3d31d88614,0.32,1,west,0.0084269167855381,0.5000001192092896,Upper slope (flat),0.32,0.9790071323047412,95,2,85.69631470888243,canal,"Quốc lộ 61, Gò Quao District, Kien Giang Province, Vietnam",1073,33249,109568,2.871654510498047,POINT (105.3441522320937 9.746158407778102),9.746158407778102,105.3441522320937
49,8f65b212196a805,0.32,488,south,0.008350221440196,74.39999389648438,Upper slope (warm),0.37,5.766210131988689,127,2,2710.104264660368,river,"Krông Nô District, Đắk Nông Province, Vietnam",242,9328,39971,2.720017671585083,POINT (107.813033169625 12.46700250930758),12.46700250930758,107.813033169625
50,8f416e6aab3004b,0.31,88,northeast,0.2848982810974121,7.0,Valley,0.35,13.428744059697076,110,7,1015.8884127990576,river,"Tuyên Hóa District, Quang Binh province, Vietnam",232,4605,15248,2.657682180404663,POINT (105.8109915597875 17.94134523070131),17.94134523070131,105.8109915597875
51,8f65b181069981b,0.31,1,north,0.0167897213250398,0.8000001907348633,Valley,0.41,0.9446515660256144,133,2,409.4626429043735,river,"Tam Tán, Thai My Commune, Củ Chi District, Ho Chi Minh City, 82719, Vietnam",1878,52045,245318,2.1677842140197754,POINT (106.4300714427295 10.9648628600663),10.9648628600663,106.4300714427295
52,8f65b1d36665359,0.31,56,southwest,0.0419496968388557,7.200000762939453,Valley,0.43,4.684168706066446,123,1,579.3377261603706,stream,"Tân Thành, Bắc Tân Uyên District, Binh Duong province, Vietnam",1914,27658,98811,2.0075623989105225,POINT (106.8485499794192 11.13836011533231),11.13836011533231,106.8485499794192
53,8f65b21106a9d94,0.3,369,east,0.0166918933391571,26.20001220703125,Upper slope (warm),0.42,5.887324034583153,134,0,3053.318422321415,water,"Đăk Rông, Cư Jút District, Đắk Nông Province, Vietnam",881,25080,97663,2.428231716156006,POINT (107.8425061855084 12.60180151985792),12.60180151985792,107.8425061855084
54,8f65b012200ea00,0.31,171,south,0.0335295759141445,10.5,Lower slope (warm),0.39,9.686250346968947,120,2,1111.943706877658,stream,"Đạ Huoai District, Lâm Đồng Province, 814690, Vietnam",692,21395,58426,1.4860305786132812,POINT (107.4972147691545 11.40330517381005),11.40330517381005,107.4972147691545
55,8f4161429110913,0.26,57,southwest,0.0081874709576368,32.20000076293945,Upper slope (warm),0.47,3.1552319515339047,125,1,1377.719670036072,lake,"Gio Linh District, Quang Tri province, Vietnam",294,10285,55357,3.889855146408081,POINT (106.9955027354655 16.85763137601386),16.85763137601386,106.9955027354655
56,8f65b214181cc86,0.34,612,northwest,0.0083493553102016,52.0,Upper slope (warm),0.39,1.8343431226099445,125,1,-1.0,-1,"Quốc lộ 14C, Đăk Mil, Đắk Mil District, Đắk Nông Province, 641970, Vietnam",256,15784,78486,3.205094814300537,POINT (107.6275063347377 12.49392038550862),12.49392038550862,107.6275063347377
57,8f65848114a0058,0.39,3,northwest,0.0084023065865039,1.7000001668930054,Lower slope (flat),0.3,0.7010690518995596,89,0,707.1479932866075,river,"Phú Thành, Phú Tân District, An Giang Province, Vietnam",802,34603,171351,3.059033155441284,POINT (105.2779867530714 10.6943746551802),10.6943746551802,105.2779867530714
58,8f65b2c05383cea,0.36,498,southwest,0.0250388346612453,12.399993896484377,Lower slope (warm),0.37,9.468915595099798,132,0,1660.379118456539,water,"Cư Kuin District, Đắk Lắk province, 02623, Vietnam",1466,40391,123804,7.7352614402771,POINT (108.1194363883859 12.59133774189939),12.59133774189939,108.1194363883859
59,8f6930c59309619,0.34,74,southeast,0.0165949948132038,25.30000305175781,Lower slope (warm),0.36,3.372218741712434,143,1,4073.8936492442017,water,"Tùng Chánh, Phù Cát District, Bình Định Province, Vietnam",231,8328,42330,3.6718790531158447,POINT (108.9556463409376 14.03633073912146),14.03633073912146,108.9556463409376
60,8f6914ca138e425,0.29,43,southeast,0.0083644082769751,15.499998092651367,Lower slope (flat),0.43,1.3013503826479549,145,1,4700.026275080158,water,"Liên Thôn 2, Cam Lâm District, Khánh Hòa Province, Vietnam",525,13070,96857,3.342176914215088,POINT (109.1281681569697 12.00879472438844),12.00879472438844,109.1281681569697
61,8f65a3c00309571,0.32,3,south,0.0084236385300755,0.7999999523162842,Lower slope (flat),0.34,0.4405165949633603,109,0,396.9755168059587,canal,"Minh Lương, Châu Thành District, Kien Giang Province, Vietnam",1651,43828,160547,3.061305522918701,POINT (105.1707808676342 9.877803754400446),9.877803754400446,105.1707808676342
62,8f4143cac61e92a,0.3,1,southwest,0.008017873391509,1.8000000715255735,Lower slope (flat),0.39,0.6183032897835913,123,0,377.8848827929914,river,"Cầu Nhân, Thái Bình, Thai Binh province, 0363, Vietnam",5954,167263,419675,2.5210635662078857,POINT (106.3321908067515 20.47083611940027),20.47083611940027,106.3321908067515
63,8f65a3c264a8acb,0.36,-1,west,0.0168493092060089,0.2999999523162842,Lower slope (warm),0.24,0.6933521305017638,101,0,241.3833628418599,canal,"Giồng Riềng District, Kien Giang Province, Vietnam",2679,33243,98271,2.9764528274536133,POINT (105.2335194798439 9.836659213932126),9.836659213932126,105.2335194798439
64,8f4143c5a7aa913,0.28,0,southeast,0.0080200415104627,0.1000000238418579,Valley,0.41,0.3299110091707953,117,0,1051.9578363653245,river,"Nam Định, Nam Dinh province, 42000, Vietnam",2054,126578,395690,3.0027849674224854,POINT (106.1196964087672 20.4293566476686),20.4293566476686,106.1196964087672
65,8f6914d23aecb4d,0.34,24,northwest,0.0501380413770675,19.80000305175781,Lower slope (warm),0.36,5.502063954185686,143,0,764.8359542413099,river,"Tinh Lo 8, Diên Khánh, Diên Khánh District, Khánh Hòa Province, 650000, Vietnam",1963,55020,146372,1.3815279006958008,POINT (109.0612528213098 12.27328597106509),12.27328597106509,109.0612528213098
66,8f65b0292db5492,0.29,209,southwest,0.0083695277571678,35.600006103515625,Upper slope (warm),0.44,5.687829424843965,112,0,663.1129148109848,dam,"Phước Sơn, Đức Hạnh, Bù Gia Mập District, Bình Phước Province, Vietnam",1212,35506,88441,2.660515785217285,POINT (107.0224650517252 11.83997962167099),11.83997962167099,107.0224650517252
67,8f693215ec11085,0.33,211,east,0.0083329752087593,38.899993896484375,Upper slope (warm),0.4,3.3020933937715125,139,0,1677.3044406166705,river,"Buôn Bầu, Sông Hinh District, Phu Yen province, Vietnam",292,6171,21756,3.678638696670532,POINT (108.8684413185409 13.00092170869342),13.00092170869342,108.8684413185409
68,8f65b57ac60164a,0.29,33,south,0.0251956284046173,1.8000011444091797,Upper slope (flat),0.47,2.240787626280714,129,0,821.0314792016883,reservoir,"An Phuoc, Long Thành District, Đồng Nai Province, 8464, Vietnam",1356,58444,217091,2.3428022861480717,POINT (106.9709910062782 10.83105976227515),10.83105976227515,106.9709910062782
69,8f65a661e9510e4,0.3,1,west,0.0084257004782557,0.1999999284744262,Lower slope (flat),0.38,0.6933342704690075,127,1,320.4938133477543,drain,"Mỹ Long, Cầu Ngang District, Tra Vinh province, Vietnam",1499,33501,89661,3.417313814163208,POINT (106.4948366252441 9.794942663879207),9.794942663879207,106.4948366252441
70,8f4161018059d2b,0.32,426,northeast,0.0081971930339932,222.6000061035156,Upper slope (warm),0.36,7.036157984475764,118,2,675.5611158891776,stream,"Khe Sanh, Hướng Hóa District, Quang Tri province, Vietnam",385,8665,20362,5.382236957550049,POINT (106.7593963577083 16.62643497604698),16.62643497604698,106.7593963577083
71,8f41436d0af6123,0.23,9,north,0.0079908799380064,1.0,Upper slope (flat),0.4,0.984733830491468,123,1,731.3310707410176,river,"Quoc Oai District, Hanoi, Vietnam",6054,109400,425103,2.6769661903381348,POINT (105.5826706062677 20.99063645469186),20.99063645469186,105.5826706062677
72,8f65a265d81ba74,0.44,5,northeast,0.0084052989259362,0.6000001430511475,Lower slope (flat),0.2,0.6936864384706972,76,2,572.935787284392,canal,"843, Tan My, Thanh Bình District, Dong Thap Province, Vietnam",1279,43019,145620,3.121044874191284,POINT (105.5050463261326 10.58349678191897),10.58349678191897,105.5050463261326
73,8f416ed801b3434,0.31,26,northeast,0.0163278877735137,9.40000057220459,Lower slope (warm),0.4,4.329816838246212,123,2,370.315975516804,river,"Quảng Ninh District, Quang Binh province, Vietnam",624,31432,116922,3.9354302883148193,POINT (106.5959968897703 17.40268839594382),17.40268839594382,106.5959968897703
74,8f415d012468c4a,0.31,88,west,0.0079717524349689,38.09999847412109,Valley,0.39,5.413948021481418,128,2,-1.0,-1,"Yên Lập, Yên Lập District, Phu Tho Province, 000, Vietnam",328,8189,35354,1.600047945976257,POINT (105.0726453158192 21.35127645808505),21.35127645808505,105.0726453158192
75,8f65b542b883534,0.29,190,northwest,0.0084002735093235,11.099990844726562,Upper slope (warm),0.46,3.454362857976113,120,1,961.2239092674388,stream,"Xã Xuân Mỹ, Cẩm Mỹ District, Đồng Nai Province, 810000, Vietnam",1455,30321,108854,2.4476959705352783,POINT (107.2219948766254 10.76801579165105),10.76801579165105,107.2219948766254
76,8f658492da5a500,0.38,1,southwest,0.0252274945378303,1.1999999284744265,Lower slope (flat),0.28,1.5621279447005203,74,3,198.63624818906632,canal,"Cân Đăng, Châu Thành District, An Giang Province, Vietnam",816,48520,167308,3.128929615020752,POINT (105.3193099897237 10.43765385712762),10.43765385712762,105.3193099897237
77,8f4151850b2a0d8,0.29,39,southwest,0.007973332889378,49.900001525878906,Upper slope (warm),0.4,9.048294799890645,121,0,456.0328909213914,water,"Tiên Yên District, Quang Ninh Province, Vietnam",908,15839,32967,2.433771133422852,POINT (107.4287543495132 21.32218370836239),21.32218370836239,107.4287543495132
78,8f4141951249875,0.25,14,southeast,0.9231408834457396,0.0,Lower slope (warm),0.49,0.9799700876570968,116,1,1073.0658565465687,river,"Nghi Lộc District, Nghệ An Province, Vietnam",791,25433,123157,2.2672410011291504,POINT (105.6409893555798 18.85184194268827),18.85184194268827,105.6409893555798
79,8f65a441edac840,0.31,10,southwest,0.0422630123794078,23.0,Lower slope (warm),0.37,5.760941122788841,99,1,194.1421149374472,coastline,"Prison Escape, Ha Huy Giap Street, Khu 5, Côn Sơn, Con Dao, Côn Đảo District, Ba Ria-Vung Tau Province, Vietnam",120,1995,4592,2.8092989921569824,POINT (106.600643123028 8.645451337240484),8.645451337240484,106.600643123028
80,8f415c95ac73742,0.22,4,north,0.023966796696186,0.5,Lower slope (flat),0.45,0.0,118,1,149.607288901146,ditch,"Nam Sách District, Hải Dương Province, Vietnam",1506,55212,298038,3.193328380584717,POINT (106.3277624421931 21.02823755360403),21.02823755360403,106.3277624421931
81,8f4141a13150409,0.31,54,north,0.0242607966065406,1.2000007629394531,Valley,0.4,1.3500879828842254,121,1,1584.4319683707618,river,"Tân Lập, Tân Kỳ District, Nghệ An Province, Vietnam",463,16500,60193,2.5816266536712646,POINT (105.2597075307472 19.08107541683938),19.08107541683938,105.2597075307472
82,8f4143cd1ad9385,0.28,1,northeast,0.0240437872707843,0.1999998092651367,Lower slope (flat),0.39,0.6602591025502835,114,0,1518.6376030312736,river,"Hưng Hà District, Thai Binh province, Vietnam",3370,75596,304405,3.1126983165740967,POINT (106.1951913156128 20.53594210927296),20.53594210927296,106.1951913156128
83,8f65b546a934b41,0.31,46,southwest,0.0168026369065046,4.5,Lower slope (warm),0.42,1.9124252058775983,122,2,2308.9111742883097,river,"Bau Can, Long Thành District, Đồng Nai Province, Vietnam",539,12559,97940,2.2406020164489746,POINT (107.0864276869125 10.72972220798012),10.72972220798012,107.0864276869125
84,8f65b537076dcb6,0.26,2,northeast,0.0084118200466036,0.7000000476837158,Lower slope (flat),0.43,0.4408368766346459,127,0,682.1469483733853,canal,"ĐT.827, Vinh Binh, Gò Công Tây District, Tien Giang province, 0009, Vietnam",4675,49766,173074,3.06357479095459,POINT (106.583663691228 10.33763058137461),10.33763058137461,106.583663691228
85,8f415c205c36074,0.28,73,northwest,0.334413081407547,1.5,Valley,0.41,12.475628782737134,121,4,1048.9436672402826,river,"Thai Nguyen City, Pho Yen City, Thai Nguyen province, Vietnam",534,14365,153083,2.410938262939453,POINT (105.7546053482859 21.53180252124291),21.53180252124291,105.7546053482859
86,8f4141158152699,0.26,67,northwest,0.0080782603472471,19.10000228881836,Upper slope (warm),0.43,3.0724657181518427,126,0,877.4438149025423,river,"Thái Hòa, Nghệ An Province, Vietnam",762,24220,97040,2.500529527664185,POINT (105.4290220715912 19.25971023857507),19.25971023857507,105.4290220715912
87,8f415d6d0701a74,0.31,66,north,0.111235573887825,5.700000762939453,Lower slope (warm),0.36,7.8990191940075,123,3,1389.6717159211375,river,"Đường tỉnh 151, Tran Yen District, Yen Bai Province, Vietnam",448,11456,40905,1.6022135019302368,POINT (104.7543774412085 21.84149704014897),21.84149704014897,104.7543774412085
88,8f414131560db1d,0.31,93,south,0.0080750305205583,13.0,Lower slope (warm),0.34,9.888456628560238,127,6,431.8629528389327,river,"Quốc lộ 48C, Quỳ Hợp, Quỳ Hợp District, Nghệ An Province, 470000, Vietnam",1926,20249,51586,1.9599740505218504,POINT (105.1959600259008 19.32695518904922),19.32695518904922,105.1959600259008
89,8f416e406223803,0.28,64,southeast,0.0081475432962179,69.30000305175781,Upper slope (warm),0.45,24.94513277430102,125,1,967.3148677719596,river,"Tuyên Hóa District, Quang Binh province, 0084, Vietnam",329,13395,40123,3.0364129543304443,POINT (106.2580089706415 17.77252251012602),17.77252251012602,106.2580089706415
90,8f414385202182a,0.27,12,southwest,0.1446835994720459,12.5,Lower slope (warm),0.43,3.3024383135996183,126,1,833.9333993738463,canal,"Đường Lê Thế Sơn, Bỉm Sơn, Thanh Hoa province, Vietnam",965,25768,173500,2.9984638690948486,POINT (105.9177835972375 20.07441888488632),20.07441888488632,105.9177835972375
91,8f415c80abadc4b,0.31,63,west,0.0079837432131171,6.599998474121094,Upper slope (warm),0.4,5.878284274463763,116,1,186.2436471273888,water,"Chí Linh, Hải Dương Province, Vietnam",1588,43830,182088,3.853097915649414,POINT (106.3300608762416 21.12603675948444),21.12603675948444,106.3300608762416
92,8f65b1d52413376,0.27,48,north,0.008388839662075,1.6000022888183594,Upper slope (warm),0.51,0.0,127,2,2454.058124784629,water,"Chánh Phú Hòa, Ben Cat Town, Binh Duong province, Vietnam",858,32847,225079,2.494833707809448,POINT (106.6571170385006 11.17927235264114),11.17927235264114,106.6571170385006
93,8f6584b3170c834,0.2,16,east,0.0168119929730892,10.899999618530272,Lower slope (flat),0.54,1.4014201190125637,140,0,3720.098146012837,stream,"Tịnh Biên District, An Giang Province, Vietnam",584,17627,103029,3.1991488933563232,POINT (104.9685443639672 10.5567786653239),10.5567786653239,104.9685443639672
94,8f65b56b5a998ca,0.32,20,northeast,0.0083944387733936,4.0,Lower slope (warm),0.41,0.4413097984426889,131,1,997.0480940599904,stream,"Hố Nai 3, Xã Hố Nai 3, Trảng Bom District, Đồng Nai Province, Vietnam",2367,151814,684446,2.1774723529815674,POINT (106.9331677546795 10.97987885143351),10.97987885143351,106.9331677546795
95,8f65b529648e2d4,0.42,3,northeast,0.0420073308050632,1.1000001430511477,Upper slope (flat),0.23,0.8821853280471972,119,1,5.247870897701838,river,"Đường số 1, Binh Hung, Bình Chánh District, Ho Chi Minh City, 70000, Vietnam",16438,1269686,4648837,2.345099210739136,POINT (106.6891264066272 10.72511200739024),10.72511200739024,106.6891264066272
96,8f416e59c34a56e,0.29,33,northeast,0.0244337804615497,10.799999237060549,Lower slope (warm),0.46,2.492967476319969,127,1,542.6459492231525,reservoir,"TL 22, Quảng Trạch District, Quang Binh province, Vietnam",792,25100,95641,3.073056936264038,POINT (106.3883838614835 17.83892018005851),17.83892018005851,106.3883838614835
97,8f658485d60199c,0.41,2,south,0.0084036597982048,0.4000000953674316,Lower slope (warm),0.25,0.3145737518101465,62,5,194.127318025218,canal,"Xã Vĩnh Tế, Chau Doc City, An Giang Province, Vietnam",727,27958,119729,3.1229236125946045,POINT (105.0573697026278 10.64417463720493),10.64417463720493,105.0573697026278
98,8f4164356625296,0.27,10,west,0.00822682864964,1.1999998092651367,Upper slope (flat),0.44,1.3222879638898253,149,0,1696.262314564384,ditch,"Cẩm Hà, Hội An, Quang Nam Province, 560000, Vietnam",3647,96686,254527,2.847259521484375,POINT (108.3033488633754 15.90495754915877),15.90495754915877,108.3033488633754
99,8f4143b08b1244e,0.26,10,northeast,0.0080431392416358,0.3000001907348633,Valley,0.4,0.4514221983459783,133,1,1009.2178469902442,water,"Đường Đồng Cổ, Quán Lào, Yên Định District, Thanh Hoa province, Vietnam",2885,49725,193357,2.660496711730957,POINT (105.6378646807241 19.97370826011741),19.97370826011741,105.6378646807241
100,8f41438c5ae58dd,0.29,85,east,0.0080352155491709,32.30000305175781,Upper slope (warm),0.4,3.6420352182108022,122,1,2704.445236984154,reservoir,"Tam Điệp, Ninh Binh province, 433420, Vietnam",852,44757,165931,2.9591593742370605,POINT (105.9076835563937 20.13073072920466),20.13073072920466,105.9076835563937
101,8f65a2035b03aed,0.39,1,west,0.0168333053588867,0.0,Valley,0.28,1.120047999445998,84,2,976.6136577900642,river,"Phú Hưng, Long Hồ District, Vinh Long province, Vietnam",3910,53684,179785,3.095658302307129,POINT (105.9301155272723 10.151981506574),10.151981506574,105.9301155272723
102,8f65b1d2ad6ecdd,0.27,43,northwest,0.0083910524845123,5.799999237060547,Valley,0.49,1.5454433277795698,126,2,4423.001124710043,stream,"Phường Hội Nghĩa, Tan Uyen Town, Binh Duong province, Vietnam",1280,54286,276164,2.2532522678375244,POINT (106.7473412068236 11.10124816828686),11.10124816828686,106.7473412068236
103,8f65a26695b3c50,0.3,4,northeast,0.008407324552536,3.000000238418579,Upper slope (flat),0.4,0.9432253045885944,121,2,75.34734853503564,canal,"Mỹ Luông, Chợ Mới District, An Giang Province, Vietnam",7827,71042,245629,2.9283852577209477,POINT (105.4844228312004 10.50750884297045),10.50750884297045,105.4844228312004
104,8f414355e4eb6c4,0.25,5,southeast,0.0160134769976139,0.0,Valley,0.44,1.8357931033477632,122,0,186.1879400583149,water,"An Tảo, Phường An Tảo, Hung Yen City, Hung Yen Province, Vietnam",4876,122616,314960,3.0453686714172363,POINT (106.0716539744328 20.68631545290349),20.68631545290349,106.0716539744328
105,8f65b40d3558a09,0.23,82,northwest,0.176330491900444,23.200000762939453,Lower slope (warm),0.51,1.2758935170859935,140,2,1965.8712148047823,river,"Phan Thiết City, Hàm Thuận Nam District, Binh Thuan province, Vietnam",1280,38239,154400,3.7339181900024414,POINT (108.0519272843451 10.90170423804435),10.90170423804435,108.0519272843451
106,8f415c2a6950788,0.28,62,northwest,0.0159120094031095,20.69999885559082,Upper slope (warm),0.48,9.734811444636325,129,0,393.0759875329542,river,"Hóa Trung Commune, Đồng Hỷ District, Thai Nguyen province, Vietnam",1848,47070,279579,2.864153861999512,POINT (105.8551095127029 21.64459823458038),21.64459823458038,105.8551095127029
107,8f65a3719320908,0.43,3,southeast,0.0084140039980411,0.2000000476837158,Lower slope (flat),0.21,0.3141790999183711,116,1,817.6458501111805,ditch,"Kien Luong District, Kien Giang Province, Vietnam",399,10761,20901,3.132535457611084,POINT (104.615845057014 10.2544438136163),10.2544438136163,104.615845057014
108,8f4143daaa506e9,0.24,2,north,0.0240687374025583,0.2000000476837158,Lower slope (flat),0.43,0.3091606457115311,112,1,1183.0202511657842,river,"Kiến Xương, Kiến Xương District, Thai Binh province, Vietnam",2469,77077,287142,3.173798084259033,POINT (106.4352805389517 20.37345070740601),20.37345070740601,106.4352805389517
109,8f415da63941718,0.32,807,northwest,0.0159959476441144,49.0,Lower slope (warm),0.35,1.8957813525085292,127,0,1822.3906193746343,stream,"Moc Chau, Mộc Châu District, Son La province, Vietnam",987,10577,32689,2.248244285583496,POINT (104.6003150950058 20.85577658725924),20.85577658725924,104.6003150950058
110,8f41411ac7414c3,0.26,61,southwest,0.0080748153850436,13.400001525878906,Lower slope (warm),0.49,1.989166489609848,129,2,2151.7076727117087,pond,"Hoàng Mai, Quỳnh Lưu District, Nghệ An Province, Vietnam",337,11206,69370,2.205059051513672,POINT (105.646327371265 19.33051434732229),19.33051434732229,105.646327371265
111,8f4160a28b06865,0.31,26,northeast,0.0082066990435123,8.699999809265137,Upper slope (warm),0.43,4.146122187940062,126,1,242.54544055505303,stream,"Hương Thủy, Thừa Thiên Huế Province, 530000, Vietnam",1318,34568,267186,2.252240896224976,POINT (107.6366246975623 16.39815334042213),16.39815334042213,107.6366246975623
112,8f414ec911ac51d,0.29,67,southeast,0.0160484816879034,19.200000762939453,Lower slope (warm),0.39,4.731004149654854,145,2,347.9010928861632,river,"Cành Nàng, Bá Thước District, Thanh Hoa province, Vietnam",503,13115,39990,0.8346112370491028,POINT (105.1997806176323 20.3468766191885),20.3468766191885,105.1997806176323
113,8f4145360791a21,0.26,5,southeast,0.0649651661515235,1.0000001192092896,Lower slope (flat),0.43,0.7210947216779877,124,0,1484.795835146944,water,"Thach Ha, Thạch Hà District, Ha Tinh Province, Vietnam",2287,57999,170786,2.4860334396362305,POINT (105.8521419825997 18.36229526714513),18.36229526714513,105.8521419825997
114,8f41438aa383af6,0.3,3,northwest,0.0080334348604083,0.0999999046325683,Valley,0.38,0.3091606457115311,120,0,232.47667808615904,river,"Yên Ninh, Yên Khánh District, Ninh Binh province, 0303, Vietnam",2424,76456,277475,3.0766942501068115,POINT (106.0524464674016 20.16624842189279),20.16624842189279,106.0524464674016
115,8f65b504d8cc340,0.34,2,southwest,0.0084103532135486,0.8999999761581421,Upper slope (flat),0.35,1.6883753591394337,93,1,1882.252322882293,canal,"Kiểng Phước, Go Cong Dong District, Tien Giang province, Vietnam",1254,24652,73448,3.4978926181793213,POINT (106.7809685341334 10.39328044737412),10.39328044737412,106.7809685341334
116,8f65a2d65babdb0,0.31,1,northeast,0.0336924791336059,0.0,Valley,0.38,0.6933787127370008,124,1,36.45382735240267,ditch,"Quốc lộ 60, Bình La, Châu Thành District, Tra Vinh province, Vietnam",1190,56183,218307,3.291177749633789,POINT (106.2833488255793 9.898184313848548),9.898184313848548,106.2833488255793
117,8f65a28de994316,0.3,2,south,1.3305740356445312,0.0,Upper slope (flat),0.41,0.8811016883790224,109,1,718.8567607661655,canal,"Mỹ Hòa, Trà Ôn District, Vinh Long province, Vietnam",2835,48742,138277,3.218715190887451,POINT (105.9488630445987 9.966169996647308),9.966169996647308,105.9488630445987
118,8f4165c108de1ab,0.29,27,southwest,0.0082349423319101,16.0,Lower slope (warm),0.37,1.1446389689126517,118,0,516.9894891643692,stream,"Nông Sơn District, Quang Nam Province, Vietnam",436,10043,25864,1.6189370155334473,POINT (108.0719486359065 15.70126653280603),15.70126653280603,108.0719486359065
119,8f41452e464135e,0.23,7,south,0.0081087658181786,0.7999997138977051,Lower slope (flat),0.44,0.4494495088726355,124,1,1544.3869137883853,river,"Linh Trụng, Nghi Xuân District, Ha Tinh Province, 45506, Vietnam",876,18512,74489,2.9439024925231934,POINT (105.7937661038826 18.6190447338485),18.6190447338485,105.7937661038826
120,8f65a201dc09a20,0.29,3,east,0.0084147844463586,0.4000000953674316,Upper slope (flat),0.44,1.577019091721134,93,1,344.7963186329069,river,"854, Châu Thành District, Dong Thap Province, 870000, Vietnam",1968,51344,205254,3.116399049758911,POINT (105.852350513682 10.22447210311707),10.22447210311707,105.852350513682
121,8f4143ce1458c18,0.27,5,south,7.21709394454956,0.0,Valley,0.44,1.1381318575416477,118,0,296.8867175502413,river,"Trần Nhân Tông, Nam Định, Mỹ Lộc District, Nam Dinh province, 42000, Vietnam",12569,211714,457919,2.359863042831421,POINT (106.1940387286801 20.44225454544875),20.44225454544875,106.1940387286801
122,8f65b6aed0ea526,0.36,972,northwest,0.0083792814984917,40.0,Upper slope (warm),0.37,19.16634693175191,113,0,1813.567115374308,stream,"Quốc lộ 28, Di Linh District, Lâm Đồng Province, Vietnam",259,7201,55574,2.6635446548461914,POINT (108.0644637773458 11.51068910578937),11.51068910578937,108.0644637773458
123,8f65a27093936d0,0.42,3,south,0.0504488199949264,0.0,Lower slope (flat),0.24,0.3091606457115311,96,1,1112.0722240229536,canal,"Cao Lanh District, Dong Thap Province, Vietnam",1052,34216,173691,3.0702292919158936,POINT (105.7207937954222 10.47625430777295),10.47625430777295,105.7207937954222
124,8f4161c8c021cac,0.3,26,northeast,0.0081958882510662,15.399999618530272,Upper slope (warm),0.42,0.6183032897835913,116,2,1774.9363434499942,water,"Tân Phước, Hải Lăng District, Quang Tri province, Vietnam",208,15359,54826,2.632222890853882,POINT (107.2367335631808 16.6579310468488),16.6579310468488,107.2367335631808
125,8f414221c83508a,0.27,2,northeast,2.9776058197021484,0.0,Upper slope (flat),0.38,0.4526165781817458,112,0,559.7076190953132,river,"Tiên Lãng, Haiphong, Thị trấn Tiên Lãng, Vietnam",3319,69042,339120,3.1484580039978027,POINT (106.5702569341589 20.74052346596708),20.74052346596708,106.5702569341589
126,8f65a258362e361,0.39,1,south,77.54121398925781,0.0,Lower slope (warm),0.32,0.7009099745671367,115,3,126.98514126411057,canal,"Thạnh Hóa District, Long An province, Vietnam",202,6789,43495,1.9986604452133176,POINT (106.2790446774113 10.60866367268096),10.60866367268096,106.2790446774113
127,8f65b19350a008d,0.36,2,northwest,0.0084007093682885,1.2999999523162842,Lower slope (flat),0.29,1.8258464322773724,119,0,91.69206328758858,stream,"Tan Tao A Ward, Ho Chi Minh City, Vietnam",7091,391284,2688243,2.583427667617798,POINT (106.5673109973932 10.75273913998173),10.75273913998173,106.5673109973932
128,8f65b3b33c098b4,0.25,73,east,0.0083662625402212,1.9000015258789065,Upper slope (flat),0.49,1.8315307516280213,130,1,3654.990130314721,stream,"Lộc Ninh District, Bình Phước Province, Vietnam",148,3803,23192,1.719757080078125,POINT (106.4661339676416 11.94826092572536),11.94826092572536,106.4661339676416
129,8f415c976836130,0.28,5,north,0.0239807553589344,0.0999999046325683,Lower slope (flat),0.42,1.039973185188984,129,0,1720.469580725251,river,"Kim Can, Thanh Hà District, Hải Dương Province, Vietnam",3587,67533,290867,2.735037326812744,POINT (106.434552998104 20.93974640061423),20.93974640061423,106.434552998104
130,8f4145229999c4b,0.26,18,northwest,0.0243425108492374,2.0000009536743164,Lower slope (warm),0.4,2.8840455333190977,140,1,377.4907656538577,dam,"Lộc Hà District, Ha Tinh Province, Vietnam",543,21556,111275,2.7986724376678467,POINT (105.8200392511363 18.50428517049429),18.50428517049429,105.8200392511363
131,8f65a266dd60448,0.27,8,northwest,0.0084081403911113,1.4000000953674316,Valley,0.42,0.3144015021685325,124,2,477.68701827945296,canal,"Mỹ Luông, Chợ Mới District, An Giang Province, Vietnam",2993,68034,255902,3.102785348892212,POINT (105.4996239956638 10.47664149782556),10.47664149782556,105.4996239956638
132,8f4159d8050c499,0.3,85,south,0.1982810497283935,7.799995422363281,Valley,0.4,12.992079153921306,119,3,801.6391718706318,river,"Lục Yên District, Yen Bai Province, Vietnam",615,13122,43337,1.767471432685852,POINT (104.8249961973358 22.09601699100461),22.09601699100461,104.8249961973358
133,8f65b5681b61a53,0.28,37,north,0.0587583482265472,11.500001907348633,Upper slope (flat),0.44,0.3091606457115311,131,0,274.941091619106,pond,"Trảng Dài Ward, Biên Hòa City, Đồng Nai Province, 76913, Vietnam",9001,280670,859741,2.037456750869751,POINT (106.8534465918127 10.99534621870709),10.99534621870709,106.8534465918127
134,8f65b0219901481,0.26,72,west,0.0167503617703914,14.599998474121094,Valley,0.48,3.970252773797645,113,0,207.806948782272,stream,"Phú Riềng, Phú Riềng District, Bình Phước Province, Vietnam",561,22050,55029,1.824275612831116,POINT (106.8729725168226 11.65109541843339),11.65109541843339,106.8729725168226
135,8f4143a6842bad6,0.3,76,northeast,0.0321633853018283,17.400001525878906,Lower slope (warm),0.42,4.908602776435759,126,1,4092.869636611092,river,"Ngọc Lặc District, Thanh Hoa province, Vietnam",496,17110,75429,1.8008333444595337,POINT (105.3849328277362 20.0197730696597),20.0197730696597,105.3849328277362
136,8f4143c28ca50a6,0.28,3,northwest,0.0240759309381246,1.899999976158142,Lower slope (flat),0.38,0.4519654853331716,109,2,138.90587149446998,river,"Cổ Lễ, Trực Ninh District, Nam Dinh province, Vietnam",2986,89838,327780,3.3064022064208984,POINT (106.2797310075545 20.3270211387759),20.3270211387759,106.2797310075545
137,8f65b69757b44e1,0.22,78,south,0.1509717255830764,0.7999954223632812,Lower slope (warm),0.47,9.32838151240794,142,0,1746.3680414884384,ditch,"Phú Điền, Tuy Phong District, Binh Thuan province, Vietnam",552,17827,76844,3.91710901260376,POINT (108.6629360264136 11.23010071845775),11.23010071845775,108.6629360264136
138,8f414158e2816e1,0.28,3,southwest,0.0080543346703052,2.1000001430511475,Lower slope (flat),0.36,0.4510812978170129,125,1,1183.7577344477093,Sông_Đơ,"Đường Trần Hưng Đạo, Sầm Sơn, Thanh Hoa province, Vietnam",6464,79294,193501,3.237557411193848,POINT (105.8904255809241 19.74832719453888),19.74832719453888,105.8904255809241
139,8f414352e361298,0.29,1,south,0.1441993415355682,0.1999999284744262,Lower slope (flat),0.4,0.9047345449802762,118,0,574.8224416510727,river,"Hưng Hà, Hưng Hà District, Thai Binh province, Vietnam",3881,80061,288122,3.0553858280181885,POINT (106.2152766212136 20.60146281559836),20.60146281559836,106.2152766212136
140,8f65b01104a9b6e,0.34,161,east,0.0335186719894409,1.3000030517578125,Lower slope (warm),0.35,15.713702933420336,128,2,338.2792390573128,reservoir,"Đạ Tẻh, Đạ Tẻh District, Lâm Đồng Province, Vietnam",668,22012,45366,1.33277428150177,POINT (107.5079039037962 11.49733234474872),11.49733234474872,107.5079039037962
141,8f4143d1921801b,0.27,2,northeast,0.0080262431874871,0.0,Valley,0.39,0.329651015961754,112,1,1604.3189141917112,canal,"Xuân Trường District, Nam Dinh province, 123, Vietnam",3288,90253,341866,3.050864696502685,POINT (106.3644904937055 20.30789017149676),20.30789017149676,106.3644904937055
142,8f414a4627010db,0.34,714,west,0.015946390107274,35.10003662109375,Lower slope (warm),0.39,19.759546869262117,129,5,-1.0,-1,"Sơn La, Son La province, Vietnam",840,31838,102067,3.0101888179779053,POINT (103.9722837329591 21.32396511924587),21.32396511924587,103.9722837329591
143,8f65b52328b6984,0.4,5,northeast,0.0084072537720203,6.099999904632568,Upper slope (flat),0.24,1.9110908296480376,131,2,48.915059195213296,river,"Xã Phước Đông, Cần Đước District, Long An province, Vietnam",1148,51734,182545,3.1656479835510254,POINT (106.65098667559 10.51041598535502),10.51041598535502,106.65098667559
144,8f41415569348a0,0.23,5,west,0.0241869315505027,0.0,Lower slope (flat),0.45,0.0,120,1,255.2196933813738,river,"Nghi Sơn, Thanh Hoa province, Vietnam",2169,35349,100680,3.450580596923828,POINT (105.7927206534927 19.58728846711349),19.58728846711349,105.7927206534927
145,8f65a20cd92d172,0.39,3,northwest,0.0084132235497236,0.7000000476837158,Valley,0.24,1.2364626041759954,97,2,139.96501151051902,canal,"Xã Hòa Thành, Lai Vung District, Dong Thap Province, Vietnam",2183,51448,235498,3.1249542236328125,POINT (105.6991738720845 10.28393820470528),10.28393820470528,105.6991738720845
146,8f65b53408d4b83,0.26,1,south,0.0084118703380227,0.0999999046325683,Lower slope (flat),0.42,0.9920862903045004,124,1,756.8264804954794,canal,"12A, Bình Đông, Gò Công Tây District, Tien Giang province, 0009, Vietnam",1819,36359,163861,3.045491933822632,POINT (106.5288664800768 10.33568008395361),10.33568008395361,106.5288664800768
147,8f414276d9ae353,0.27,4,northwest,0.0080000841990113,0.4000000953674316,Upper slope (flat),0.42,0.4527351997256526,110,1,519.6049528044971,river,"Quận Hải An, Haiphong, Vietnam",2239,74870,595672,3.3353590965271,POINT (106.7536456833453 20.81486335076332),20.81486335076332,106.7536456833453
148,8f6596cab9a3a96,0.3,667,east,0.008274114690721,39.39996337890625,Upper slope (warm),0.42,7.962193676980513,131,0,2481.199457857729,water,"Quốc lộ 14C, Hòa Bình, Ngoc Hoi District, Kon Tum province, Vietnam",964,19439,37033,2.803617477416992,POINT (107.6893744665235 14.68105001937846),14.68105001937846,107.6893744665235
149,8f65b530c792976,0.35,-2,west,0.0084107751026749,0.0,Upper slope (flat),0.32,0.4408654641623258,121,1,1845.084004823666,canal,"Long Chánh, Go Cong Town, Tien Giang province, Vietnam",2119,88544,239088,3.1952474117279053,POINT (106.6427858860706 10.37765783559386),10.37765783559386,106.6427858860706
150,8f65b0b40449750,0.32,66,northeast,0.0083923125639557,7.0,Lower slope (warm),0.37,1.129193288803541,130,0,2082.3372563354656,pond,"Xã Cây Gáo, Trảng Bom District, Đồng Nai Province, Vietnam",959,30166,81854,2.194354772567749,POINT (107.0450275063691 11.05570075750219),11.05570075750219,107.0450275063691
151,8f41434ee8616d0,0.24,5,northwest,0.0079989358782768,0.4000000953674316,Lower slope (flat),0.43,1.580415624592721,128,1,1229.1238016353234,river,"Khoái Châu, Khoái Châu District, Hung Yen Province, Vietnam",4442,105967,385838,3.1306347846984863,POINT (105.9906780199935 20.83650492277982),20.83650492277982,105.9906780199935
152,8f4143d71110d30,0.24,5,north,1.1565386056900024,0.0,Lower slope (flat),0.45,0.9841652135801424,122,2,641.4806463994224,canal,"Yên Định, Hải Hậu District, Nam Dinh province, Vietnam",5998,94823,300109,3.082923650741577,POINT (106.3012900716283 20.20780308975613),20.20780308975613,106.3012900716283
153,8f41422a85b5172,-1.0,2,northeast,0.3599983751773834,0.0,Lower slope (flat),-1.0,0.4527458892129923,-1,-1,138.6198428815636,river,"Văn Tràng 1, Trường Sơn, Haiphong, Xã Trường Sơn, 35999, Vietnam",5499,133603,700778,3.0588223934173584,POINT (106.5969099126448 20.82091737213056),20.82091737213056,106.5969099126448
154,8f658586e4e04c9,0.25,10,north,0.0420646890997886,4.300000190734863,Lower slope (flat),0.51,0.6284204836915249,136,0,399.11384339029854,river,"Cửa Dương, Phu Quoc City, Kien Giang Province, 922221, Vietnam",594,10320,34565,2.480060815811157,POINT (103.9390519187594 10.29546262095324),10.29546262095324,103.9390519187594
155,8f65b559e7b22c4,0.31,172,southeast,0.0503773912787437,22.0,Upper slope (warm),0.44,2.6456604127830423,136,0,1148.0772289031322,reservoir,"Xuân Lộc District, Đồng Nai Province, Vietnam",1636,44482,119675,3.6931166648864746,POINT (107.430787839144 10.91398549462376),10.91398549462376,107.430787839144
156,8f65a225c4cc8e5,0.39,2,southwest,0.0084141539409756,0.7000000476837158,Lower slope (flat),0.32,1.991396347929292,92,1,156.68550694856393,canal,"Núi Sập, Thoại Sơn District, An Giang Province, Vietnam",2210,41512,104159,3.0744309425354004,POINT (105.2681127162713 10.24819020583114),10.24819020583114,105.2681127162713
157,8f65849356042d8,0.3,1,west,0.008407617919147,0.7000000476837158,Lower slope (flat),0.35,0.693645937678992,115,2,881.1740194771257,canal,"Nhơn Hiệp, Chợ Mới District, An Giang Province, Vietnam",1653,56913,282263,3.143020868301392,POINT (105.4245805903588 10.49639368357171),10.49639368357171,105.4245805903588
158,8f415c80648b89c,0.26,2,east,23.1835994720459,0.0,Lower slope (flat),0.44,1.139849863009076,124,1,786.0785208891757,river,"Chí Linh, Hải Dương Province, Vietnam",2811,67777,159766,3.4761717319488525,POINT (106.4193801301632 21.118308137063),21.118308137063,106.4193801301632
159,8f65b0006868969,0.34,159,northeast,0.008377999998629,13.399993896484377,Lower slope (warm),0.35,0.9465898285053548,118,1,52.50396888173219,river,"Đường tỉnh 721, Cát Tiên, Cát Tiên District, Lâm Đồng Province, Vietnam",2320,29768,57714,2.034026622772217,POINT (107.3758089572849 11.55485812012393),11.55485812012393,107.3758089572849
160,8f4142a580b6ad1,0.25,3,southeast,0.0080243768170475,0.2000001668930053,Lower slope (flat),0.42,0.7282993375604245,124,1,1244.0164344657342,coastline,"Tiền Hải District, Thai Binh province, Vietnam",2387,38447,147241,3.56330943107605,POINT (106.5680248611884 20.34418452710185),20.34418452710185,106.5680248611884
161,8f4143c46cce6cb,0.26,3,east,0.0080241039395332,0.2999999523162842,Valley,0.41,0.329739841191586,107,1,441.9509011032101,river,"Nam Giang, Nam Trực District, Nam Dinh province, 41000, Vietnam",2678,73842,407938,3.1069061756134038,POINT (106.1696029155397 20.34951306405844),20.34951306405844,106.1696029155397
162,8f65b5a6801acd3,-1.0,-1,east,0.0084202457219362,1.4000000953674316,Lower slope (flat),-1.0,0.4406078291442756,-1,-1,163.93969388539574,river,"Ấp Chín, Ba Tri District, Bến Tre Province, Vietnam",882,26475,138563,3.87206506729126,POINT (106.5540511389159 10.01144909601979),10.01144909601979,106.5540511389159
163,8f4143b8d5ae1ad,0.25,20,southwest,0.0080357892438769,10.90000057220459,Lower slope (flat),0.45,3.416643975457812,133,1,1565.5754412026731,water,"Kim Tân, Thạch Thành District, Thanh Hoa province, Vietnam",1008,27204,92297,2.419334888458252,POINT (105.6913750198305 20.11955136094993),20.11955136094993,105.6913750198305
164,8f415b9b612da65,0.3,182,northwest,0.0552404634654521,40.399993896484375,Lower slope (warm),0.35,12.368708611483813,126,3,709.4170599130376,river,"Minh Khai, Hà Giang, Hà Giang Province, 311000, Vietnam",2501,45516,72430,1.2716423273086548,POINT (104.9899018406712 22.80716835887393),22.80716835887393,104.9899018406712
165,8f4143ca675622d,-1.0,4,north,0.0240522269159555,1.8000000715255735,Upper slope (flat),-1.0,0.7008541666283142,-1,-1,69.28883144930104,river,"Thái Bình, Kiến Xương District, Thai Binh province, Vietnam",1618,62023,359655,3.2533063888549805,POINT (106.4039023892584 20.48117636991772),20.48117636991772,106.4039023892584
166,8f4143c5a72b449,0.28,2,southwest,0.0080201709643006,0.8999999761581421,Upper slope (flat),0.4,0.9843209506094348,121,0,1208.7975412818018,river,"Mỹ Lộc, Mỹ Lộc District, Nam Dinh province, 400000, Vietnam",1885,121092,395513,3.1049938201904297,POINT (106.1180606543516 20.42646696927951),20.42646696927951,106.1180606543516
167,8f65b08a54dd351,0.32,140,southeast,0.0083869136869907,29.70000457763672,Upper slope (warm),0.37,3.792729633568296,130,0,2001.04236466917,water,"Đức Linh District, Binh Thuan province, Vietnam",692,16248,64673,1.9548064470291135,POINT (107.5988724290294 11.24658380078345),11.24658380078345,107.5988724290294
168,8f65a36e6476c28,0.43,2,east,0.0084101166576147,1.6000001430511477,Upper slope (flat),0.25,0.8817145788120616,83,2,294.3022763277264,canal,"Ha Tien City, Kien Giang Province, KP1, Vietnam",323,11284,32477,2.235283613204956,POINT (104.4939356147808 10.40279270965413),10.40279270965413,104.4939356147808
169,8f65a25167b3a43,0.3,1,southwest,0.0084077976644039,0.2999999523162842,Lower slope (flat),0.39,0.4409465012954496,119,1,1460.1471779314004,canal,"Tân Phước District, Tien Giang province, Vietnam",606,41695,190380,2.577049493789673,POINT (106.3115282606021 10.49023016365151),10.49023016365151,106.3115282606021
170,8f6936ce0951586,0.29,335,southeast,0.0249215047806501,34.899993896484375,Lower slope (warm),0.45,2.8623194877253595,128,1,3641.471510876816,water,"Chư Ty, Đức Cơ District, Gia Lai Province, Vietnam",260,12844,36928,2.378932476043701,POINT (107.6875560970721 13.7614775738536),13.7614775738536,107.6875560970721
171,8f65b5adacb16b0,0.29,2,northwest,0.1261923313140869,0.5999999046325684,Upper slope (warm),0.4,1.3222236496574693,127,1,292.46561699336905,canal,"Haa Phu, Gò Công Tây District, Tien Giang province, Vietnam",3493,35068,202787,3.2838449478149414,POINT (106.6319949391075 10.30165469009903),10.30165469009903,106.6319949391075
172,8f65b69101a1b18,0.27,33,southeast,0.0167686864733696,10.000001907348633,Lower slope (warm),0.42,1.5454433277729842,164,0,1836.3009630125428,coastline,"Tuy Phong District, Binh Thuan province, Vietnam",757,13821,42616,2.170832872390747,POINT (108.8072572129295 11.33579126887875),11.33579126887875,108.8072572129295
173,8f415e86514d6ce,0.29,226,southeast,0.0079339062795043,27.89999389648437,Valley,0.42,2.6843522424017823,130,1,1204.5595193990805,river,"Pò Lâu, Văn Lãng, Lạng Sơn Province, Vietnam",372,10503,27405,2.998496055603028,POINT (106.5914401148643 22.04877532440242),22.04877532440242,106.5914401148643
174,8f41422140ce59c,0.25,3,north,0.0080038318410515,0.8000000715255737,Lower slope (flat),0.43,0.7298604737693241,121,0,3365.6962798073127,river,"Xã Du Lễ, Huyện Kiến Thụy, Haiphong, Vietnam",3034,75529,352989,2.9772229194641118,POINT (106.6268369341351 20.74351949304978),20.74351949304978,106.6268369341351
175,8f4141471088620,0.22,10,northwest,0.0080588273704051,1.700000286102295,Lower slope (warm),0.55,3.76220138362143,129,1,669.6298805903963,river,"Nông Cống, Thanh Hoa province, Vietnam",1302,37459,141415,3.22477126121521,POINT (105.6454023130151 19.65724599541215),19.65724599541215,105.6454023130151
176,8f4143d053960c9,0.28,1,north,3.613532304763794,0.0,Lower slope (flat),0.39,0.9841841150912788,104,4,711.8583279308054,water,"Giao Thủy District, Nam Dinh province, Vietnam",2627,63510,238409,2.8124959468841557,POINT (106.412701379821 20.23477658689816),20.23477658689816,106.412701379821
177,8f65b0806aac220,0.28,141,northwest,0.0167788676917552,7.199996948242188,Upper slope (warm),0.5,4.498855571232533,132,2,3536.674064534251,ditch,"Đức Linh District, Binh Thuan province, 803700, Vietnam",545,39416,94014,1.4440786838531494,POINT (107.5478533368213 11.15803622931215),11.15803622931215,107.5478533368213
178,8f65b5af5351094,0.38,-3,south,0.4965217709541321,0.4999999403953552,Upper slope (flat),0.26,1.5613281435197943,124,0,1772.9111405304614,canal,"Bình Đại, Bình Đại District, Bến Tre Province, Vietnam",5213,36939,95720,3.300049066543579,POINT (106.6856528561534 10.18862352337187),10.18862352337187,106.6856528561534
179,8f65b0b0ec92710,0.3,102,north,0.1594302207231521,9.5,Lower slope (warm),0.45,6.373684376643099,120,0,2628.8107136224653,pond,"Phú Cường, Xã Phú Cường, Định Quán District, Đồng Nai Province, Vietnam",1215,40748,115975,2.1253304481506348,POINT (107.1781697297089 11.10163431454333),11.10163431454333,107.1781697297089
180,8f414525a435730,0.28,5,southwest,0.0081088813021779,3.700000047683716,Lower slope (flat),0.39,0.3091606457115311,123,0,744.1740277473441,river,"Petrolimex, Quốc lộ 1, Xuân An, Nghi Xuân District, Ha Tinh Province, 038, Vietnam",1359,65732,371300,2.808277130126953,POINT (105.6961270773377 18.61664082368624),18.61664082368624,105.6961270773377
181,8f41431065a246a,0.24,1,northwest,0.0321017280220985,1.100000023841858,Upper slope (flat),0.45,1.279633992755483,123,0,770.7103879748709,canal,"Lâm, Ý Yên District, Nam Dinh province, Vietnam",5826,74278,308872,3.026244878768921,POINT (106.0057977144459 20.32302663965038),20.32302663965038,106.0057977144459
182,8f4161403cc021a,0.29,17,north,0.0081843025982379,7.100000381469727,Lower slope (warm),0.43,3.633321230088624,132,0,198.25039037931109,stream,"An Xã, Gio Linh District, Quang Tri province, Vietnam",884,20769,61623,3.326927661895752,POINT (107.043609392811 16.93198086715273),16.93198086715273,107.043609392811
183,8f4165885b45518,0.33,362,southwest,0.0082454206421971,18.0,Upper slope (warm),0.35,5.540337491288612,122,0,165.48838813857233,ditch,"Khâm Đức, Phước Sơn District, Quang Nam Province, Vietnam",185,3621,8624,2.064984083175659,POINT (107.8068425040792 15.43504611784887),15.43504611784887,107.8068425040792
184,8f41435987aa59a,0.29,2,southeast,4.126582622528076,0.0,Valley,0.38,0.3308561661182201,120,0,635.6392855524206,river,"Gia Loc, Gia Loc District, Hải Dương Province, Vietnam",1922,69337,361614,3.1296634674072266,POINT (106.2628980827189 20.86461794651871),20.86461794651871,106.2628980827189
185,8f65b439ab6e96e,0.27,37,northeast,0.0083977105095982,1.7999992370605469,Lower slope (flat),0.45,1.690618401859243,137,1,2745.3679620686994,river,"Hàm Thuận Nam District, Binh Thuan province, Vietnam",416,13493,33937,2.800478219985962,POINT (107.8419786366594 10.86130621183586),10.86130621183586,107.8419786366594
186,8f65a2da3af30e9,0.28,2,east,0.0084170252084732,0.5,Valley,0.41,0.9274099368650546,114,1,1355.1213613735622,river,"Tân Hòa, Giồng Trôm District, Bến Tre Province, Vietnam",1376,43890,118105,2.8081870079040527,POINT (106.4805001835209 10.13739665380954),10.13739665380954,106.4805001835209
187,8f65a2d63af39ad,0.33,2,north,0.707451343536377,0.0,Lower slope (flat),0.38,0.4405591986627589,118,1,838.9047389695954,river,"Càng Long District, Tra Vinh province, Vietnam",6117,61086,224320,3.18426513671875,POINT (106.2703077176579 9.940692836985747),9.940692836985747,106.2703077176579
188,8f415e7334ad588,0.31,569,east,0.0315594263374805,32.10003662109375,Lower slope (warm),0.31,19.47055684657435,121,0,3291.461478559325,river,"Trùng Khánh, Trùng Khánh District, Cao Bằng Province, Vietnam",1311,17670,33117,2.6369149684906006,POINT (106.5445009813384 22.83541905669151),22.83541905669151,106.5445009813384
189,8f65b6d343754e2,0.24,18,west,0.058634877204895,3.999999523162842,Lower slope (warm),0.43,6.087958280558991,144,0,2315.23024726171,coastline,"Mỹ Tường, Ninh Hải District, Ninh Thuan province, Vietnam",1119,24933,98026,3.660357713699341,POINT (109.0942199689663 11.60808765232721),11.60808765232721,109.0942199689663
190,8f69145925a9ba5,0.26,18,southwest,0.0167538076639175,8.40000057220459,Lower slope (warm),0.42,2.442960487414999,147,0,714.6065374501154,coastline,"Tỉnh lộ 702, Mỹ Tường, Ninh Hải District, Ninh Thuan province, Vietnam",2172,18320,38329,5.166721820831299,POINT (109.1342239225139 11.59168341708595),11.59168341708595,109.1342239225139
191,8f65a62f4159661,0.42,0,northwest,0.0084333587437868,0.7000001668930054,Upper slope (flat),0.22,1.6843119144372112,104,0,153.98518140426742,river,"Nhà Thờ, Xã Trung Bình, Trần Đề District, Soc Trang province, Vietnam",2068,32366,88209,3.5797739028930664,POINT (106.1988809816879 9.48221656103529),9.48221656103529,106.1988809816879
192,8f65b036178a899,0.29,81,southeast,0.0083825532346963,17.400005340576172,Lower slope (warm),0.48,7.679126529834539,119,1,1045.1448316906162,stream,"Đồng Phú District, Bình Phước Province, Vietnam",502,20086,66692,2.1570348739624023,POINT (106.8680622078676 11.39792333306327),11.39792333306327,106.8680622078676
193,8f415d55c41e6c4,0.32,52,north,0.0079634087160229,19.799999237060547,Upper slope (warm),0.42,3.505436604084418,129,3,5011.086561713815,river,"Phù Ninh District, Phu Tho Province, Vietnam",265,7727,47870,2.440361738204956,POINT (105.2401141872004 21.5074716140579),21.5074716140579,105.2401141872004
194,8f41656ccd736a5,0.31,561,southeast,0.0164279378950595,3.70001220703125,Upper slope (warm),0.41,3.5664280156884924,118,1,258.6954362550457,canal,"Phú Vinh, A Lưới District, Thừa Thiên Huế Province, Vietnam",419,8418,19248,2.980712413787842,POINT (107.260948488122 16.22204899573068),16.22204899573068,107.260948488122
195,8f65a3574a16500,0.41,0,south,0.0168363377451896,0.4000000953674316,Upper slope (flat),0.22,0.3140192444057397,102,3,195.21071478007065,water,"Hon Dat District, Kien Giang Province, Vietnam",839,19146,76483,3.329819679260254,POINT (105.025067201348 10.09238948230749),10.09238948230749,105.025067201348
196,8f65a26eb9a90e2,0.35,4,north,0.0084028933197259,0.0999999046325683,Upper slope (warm),0.33,1.5629011930268517,103,1,419.6976030918467,river,"Tam Nông District, Dong Thap Province, Vietnam",1568,29099,71610,3.0700933933258057,POINT (105.5357544682676 10.67288978524786),10.67288978524786,105.5357544682676
197,8f41414e4ab164d,0.26,7,southwest,0.515494167804718,0.0,Valley,0.44,1.8831608919544056,123,2,325.4160119703003,river,"Đông Sơn, Thanh Hoa province, Vietnam",1748,59488,251221,3.0744776725769043,POINT (105.6944089219399 19.74232264379203),19.74232264379203,105.6944089219399
